GPS BIIR-2  (PRN 13)    
1 24876U 97035A   21349.88488407  .00000089  00000+0  00000+0 0  9992
2 24876  55.4892 162.8348 0055742  54.6857 305.8534  2.00563053178976
GPS BIIR-4  (PRN 20)    
1 26360U 00025A   21349.75292934 -.00000070  00000+0  00000+0 0  9990
2 26360  53.9120  86.4662 0053971 178.0910 174.1078  2.00559593158282
GPS BIIR-8  (PRN 16)    
1 27663U 03005A   21349.61901545 -.00000060  00000+0  00000+0 0  9997
2 27663  55.6415 280.3598 0123496  38.6451 194.3468  2.00575490138323
GPS BIIR-9  (PRN 21)    
1 27704U 03010A   21349.52213222 -.00000093  00000+0  00000+0 0  9993
2 27704  54.9481  30.7617 0245934 299.9891  82.2106  2.00571734137123
GPS BIIR-10 (PRN 22)    
1 28129U 03058A   21349.57675394 -.00000066  00000+0  00000+0 0  9994
2 28129  53.7238  89.1026 0069800 308.9622  50.4072  2.00565125131808
GPS BIIR-11 (PRN 19)    
1 28190U 04009A   21349.82656553 -.00000084  00000+0  00000+0 0  9993
2 28190  56.1052 341.2811 0086962 114.4264  70.0174  2.00564412129964
GPS BIIR-13 (PRN 02)    
1 28474U 04045A   21349.37751351 -.00000093  00000+0  00000+0 0  9990
2 28474  55.2788  30.8382 0208035 275.7265 212.2070  2.00566024125443
GPS BIIRM-1 (PRN 17)    
1 28874U 05038A   21349.78946736 -.00000084  00000+0  00000+0 0  9995
2 28874  56.1795 338.7074 0139841 272.6893 267.4736  2.00558690118852
GPS BIIRM-2 (PRN 31)    
1 29486U 06042A   21349.78557661  .00000072  00000+0  00000+0 0  9992
2 29486  54.7383 216.5813 0103503  18.8639  75.0234  2.00565047111412
GPS BIIRM-3 (PRN 12)    
1 29601U 06052A   21349.10655536 -.00000063  00000+0  00000+0 0  9999
2 29601  55.6430 279.3111 0082439  69.9953 290.8974  2.00567955110419
GPS BIIRM-4 (PRN 15)    
1 32260U 07047A   21349.41053786  .00000064  00000+0  00000+0 0  9992
2 32260  53.2699 148.1709 0137242  60.4626 300.8920  2.00558353103829
GPS BIIRM-5 (PRN 29)    
1 32384U 07062A   21349.44342832 -.00000083  00000+0  00000+0 0  9994
2 32384  56.2929 339.4588 0015869 139.3117  16.7521  2.00552101102527
GPS BIIRM-6 (PRN 07)    
1 32711U 08012A   21349.32989743  .00000070  00000+0  00000+0 0  9994
2 32711  54.4946 215.5768 0155143 228.8244 129.9149  2.00558633100762
GPS BIIRM-8 (PRN 05)    
1 35752U 09043A   21349.80718296 -.00000060  00000+0  00000+0 0  9993
2 35752  54.9345  92.9317 0057451  57.1394 304.4852  2.00568403 90380
GPS BIIF-1  (PRN 25)    
1 36585U 10022A   21349.78641608 -.00000051  00000+0  00000+0 0  9996
2 36585  54.9211 274.9310 0100134  54.5844  50.0395  2.00555905 84618
GPS BIIF-2  (PRN 01)    
1 37753U 11036A   21349.71181793 -.00000090  00000+0  00000+0 0  9990
2 37753  56.5165  35.8655 0109653  49.8910  84.3315  2.00564359 76294
GPS BIIF-3  (PRN 24)    
1 38833U 12053A   21349.50945498  .00000078  00000+0  00000+0 0  9992
2 38833  53.5471 210.8892 0119888  44.5266 316.5203  2.00559873 66454
GPS BIIF-4  (PRN 27)    
1 39166U 13023A   21349.37074214 -.00000085  00000+0  00000+0 0  9993
2 39166  55.8148 335.1688 0097097  34.7217 325.9149  2.00567033 62892
GPS BIIF-5  (PRN 30)    
1 39533U 14008A   21349.36856725  .00000067  00000+0  00000+0 0  9998
2 39533  53.6452 216.3825 0054471 204.5112 155.3168  2.00571048 56695
GPS BIIF-6  (PRN 06)    
1 39741U 14026A   21349.64632891 -.00000091  00000+0  00000+0 0  9994
2 39741  56.4818  35.3946 0027172 298.5445  61.2406  2.00569061 55552
GPS BIIF-7  (PRN 09)    
1 40105U 14045A   21349.24086346  .00000079  00000+0  00000+0 0  9990
2 40105  54.6562 154.1597 0021515 107.2583 252.9824  2.00565306 53087
GPS BIIF-8  (PRN 03)    
1 40294U 14068A   21349.61105460 -.00000055  00000+0  00000+0 0  9999
2 40294  55.6799  95.2066 0036690  54.9921 305.3326  2.00558591 52222
GPS BIIF-9  (PRN 26)    
1 40534U 15013A   21349.74379764 -.00000047  00000+0  00000+0 0  9992
2 40534  53.8244 272.3062 0065489  16.9124 343.3246  2.00563811 48846
GPS BIIF-10 (PRN 08)    
1 40730U 15033A   21349.40690148 -.00000086  00000+0  00000+0 0  9990
2 40730  55.3180 334.0835 0069386   1.7434 358.2847  2.00561736 47003
GPS BIIF-11 (PRN 10)    
1 41019U 15062A   21349.45729181 -.00000055  00000+0  00000+0 0  9994
2 41019  55.6706  95.0518 0074561 214.9932 144.4981  2.00563177 44849
GPS BIIF-12 (PRN 32)    
1 41328U 16007A   21349.55175582  .00000078  00000+0  00000+0 0  9992
2 41328  54.8787 154.7732 0054537 224.9990 134.5629  2.00554254 42853
GPS BIII-1  (PRN 04)    
1 43873U 18109A   21349.77049696  .00000081  00000+0  00000+0 0  9998
2 43873  55.0597 157.1441 0016091 188.9185 223.3099  2.00563966 22096
GPS BIII-2  (PRN 18)    
1 44506U 19056A   21349.74016497 -.00000092  00000+0  00000+0 0  9997
2 44506  55.5868  36.3643 0020924 183.1049 109.3612  2.00568628 17081
GPS BIII-3  (PRN 23)    
1 45854U 20041A   21349.81147272 -.00000058  00000+0  00000+0 0  9996
2 45854  55.3868  93.6317 0018724 170.2531 114.7679  2.00561548 11056
GPS BIII-4  (PRN 14)    
1 46826U 20078A   21349.81935447 -.00000055  00000+0  00000+0 0  9992
2 46826  54.6926 277.5452 0012503 186.9124  74.4523  2.00567058  8527
